[
    {
        "Altitude(m)": 604969.0889869791,
        "Argument of Periapsis(deg)": 0.0,
        "Eccentricity": 0.0,
        "Inclination(deg)": 60.0,
        "Latitude(deg)": -0.09253592928982021,
        "Longitude(deg)": 109.97752758320223,
        "Mean Anomaly(deg)": 0.0,
        "RAAN(deg)": 210.0,
        "Satellite Name": "Test1 924",
        "Satellite Number": 924,
        "Semi-Major Axis(m)": 6980739.136638005,
        "Time(s)": 0
    },
    {
        "Altitude(m)": 604900.0293547164,
        "Argument of Periapsis(deg)": 0.00010418945913296404,
        "Eccentricity": 0.0,
        "Inclination(deg)": 60.0,
        "Latitude(deg)": 0.44788990077633173,
        "Longitude(deg)": 110.24565074386699,
        "Mean Anomaly(deg)": 0.6201061454618275,
        "RAAN(deg)": 209.99957995086027,
        "Satellite Name": "Test1 924",
        "Satellite Number": 924,
        "Semi-Major Axis(m)": 6980739.136638005,
        "Time(s)": 10
    }
]